[{"OBJECT_NAME":"TIANQI-30","OBJECT_ID":"2024-170B","EPOCH":"2026-03-09T21:12:35.925696","MEAN_MOTION":13.99108215,"ECCENTRICITY":0.00073562,"INCLINATION":44.8573,"RA_OF_ASC_NODE":219.7467,"ARG_OF_PERICENTER":348.864,"MEAN_ANOMALY":11.2027,"EPHEMERIS_TYPE":0,"CLASSIFICATION_TYPE":"U","NORAD_CAT_ID":61196,"ELEMENT_SET_NO":999,"REV_AT_EPOCH":7514,"BSTAR":0.00015101547,"MEAN_MOTION_DOT":9.2e-7,"MEAN_MOTION_DDOT":0},{"OBJECT_NAME":"FENGYUN 1C DEB","OBJECT_ID":"1999-025EWE","EPOCH":"2026-03-08T08:44:50.366112","MEAN_MOTION":13.84688969,"ECCENTRICITY":0.01771448,"INCLINATION":99.1587,"RA_OF_ASC_NODE":216.0192,"ARG_OF_PERICENTER":113.0211,"MEAN_ANOMALY":248.9735,"EPHEMERIS_TYPE":0,"CLASSIFICATION_TYPE":"U","NORAD_CAT_ID":39537,"ELEMENT_SET_NO":999,"REV_AT_EPOCH":60441,"BSTAR":0.0029041435,"MEAN_MOTION_DOT":3.649e-5,"MEAN_MOTION_DDOT":0}]
